{"fetched_at":"2026-03-29T16:36:15Z","count":15609,"tles":[{"name":"STARLINK-32197","line1":"1 60416U 24141U   26087.86275609  .00002728  00000+0  10424-3 0  9997","line2":"2 60416  53.1590 143.7391 0000762 111.0937 249.0146 15.30186234 92591","category":"Starlink"}]}